[{"OBJECT_NAME":"XINGYUN-2 02","OBJECT_ID":"2020-028B","EPOCH":"2026-03-10T00:08:18.521088","MEAN_MOTION":15.11086378,"ECCENTRICITY":0.0009258,"INCLINATION":97.5114,"RA_OF_ASC_NODE":76.7595,"ARG_OF_PERICENTER":249.9829,"MEAN_ANOMALY":110.0404,"EPHEMERIS_TYPE":0,"CLASSIFICATION_TYPE":"U","NORAD_CAT_ID":45603,"ELEMENT_SET_NO":999,"REV_AT_EPOCH":31985,"BSTAR":0.00013296102,"MEAN_MOTION_DOT":2.163e-5,"MEAN_MOTION_DDOT":0},{"OBJECT_NAME":"STARLINK-4641","OBJECT_ID":"2022-107AG","EPOCH":"2026-03-09T21:24:11.129472","MEAN_MOTION":15.08837422,"ECCENTRICITY":0.00013285,"INCLINATION":53.216,"RA_OF_ASC_NODE":253.2472,"ARG_OF_PERICENTER":86.2475,"MEAN_ANOMALY":273.8669,"EPHEMERIS_TYPE":0,"CLASSIFICATION_TYPE":"U","NORAD_CAT_ID":53730,"ELEMENT_SET_NO":999,"REV_AT_EPOCH":19458,"BSTAR":1.0996683e-5,"MEAN_MOTION_DOT":-1.13e-6,"MEAN_MOTION_DDOT":0}]
